[{"OBJECT_NAME":"UNKNOWN","OBJECT_ID":"","EPOCH":"2026-04-04T02:25:13.173024","MEAN_MOTION":13.79025033,"ECCENTRICITY":0.0121003,"INCLINATION":66.7972,"RA_OF_ASC_NODE":143.0156,"ARG_OF_PERICENTER":251.1104,"MEAN_ANOMALY":107.6818,"EPHEMERIS_TYPE":0,"CLASSIFICATION_TYPE":"U","NORAD_CAT_ID":81359,"ELEMENT_SET_NO":999,"REV_AT_EPOCH":62097,"BSTAR":0.00080073,"MEAN_MOTION_DOT":7.9e-6,"MEAN_MOTION_DDOT":0},{"OBJECT_NAME":"UNKNOWN","OBJECT_ID":"","EPOCH":"2026-04-03T14:18:05.465376","MEAN_MOTION":13.45429449,"ECCENTRICITY":0.0714339,"INCLINATION":65.8818,"RA_OF_ASC_NODE":167.2514,"ARG_OF_PERICENTER":27.1324,"MEAN_ANOMALY":336.5236,"EPHEMERIS_TYPE":0,"CLASSIFICATION_TYPE":"U","NORAD_CAT_ID":81366,"ELEMENT_SET_NO":999,"REV_AT_EPOCH":8100,"BSTAR":0.00046117,"MEAN_MOTION_DOT":1.252e-5,"MEAN_MOTION_DDOT":0},{"OBJECT_NAME":"UNKNOWN","OBJECT_ID":"","EPOCH":"2026-04-03T06:34:47.997696","MEAN_MOTION":14.71361206,"ECCENTRICITY":0.0068712,"INCLINATION":98.8119,"RA_OF_ASC_NODE":203.7252,"ARG_OF_PERICENTER":17.8223,"MEAN_ANOMALY":342.5368,"EPHEMERIS_TYPE":0,"CLASSIFICATION_TYPE":"U","NORAD_CAT_ID":81371,"ELEMENT_SET_NO":999,"REV_AT_EPOCH":65823,"BSTAR":0.00086549,"MEAN_MOTION_DOT":5.496e-5,"MEAN_MOTION_DDOT":0},{"OBJECT_NAME":"UNKNOWN","OBJECT_ID":"","EPOCH":"2026-04-02T07:37:48.867744","MEAN_MOTION":14.37579494,"ECCENTRICITY":0.0093765,"INCLINATION":71.0487,"RA_OF_ASC_NODE":116.3732,"ARG_OF_PERICENTER":269.9224,"MEAN_ANOMALY":89.1166,"EPHEMERIS_TYPE":0,"CLASSIFICATION_TYPE":"U","NORAD_CAT_ID":81386,"ELEMENT_SET_NO":999,"REV_AT_EPOCH":64012,"BSTAR":0.0020792,"MEAN_MOTION_DOT":6.519e-5,"MEAN_MOTION_DDOT":0},{"OBJECT_NAME":"UNKNOWN","OBJECT_ID":"","EPOCH":"2026-04-01T10:35:01.107456","MEAN_MOTION":12.35608531,"ECCENTRICITY":0.0175687,"INCLINATION":103.1051,"RA_OF_ASC_NODE":352.457,"ARG_OF_PERICENTER":314.0589,"MEAN_ANOMALY":44.6114,"EPHEMERIS_TYPE":0,"CLASSIFICATION_TYPE":"U","NORAD_CAT_ID":81390,"ELEMENT_SET_NO":999,"REV_AT_EPOCH":51364,"BSTAR":-0.0025854,"MEAN_MOTION_DOT":-3.95e-6,"MEAN_MOTION_DDOT":0},{"OBJECT_NAME":"UNKNOWN","OBJECT_ID":"","EPOCH":"2026-04-01T22:38:44.093760","MEAN_MOTION":13.82448122,"ECCENTRICITY":0.0042343,"INCLINATION":100.4054,"RA_OF_ASC_NODE":96.4099,"ARG_OF_PERICENTER":111.3174,"MEAN_ANOMALY":280.4946,"EPHEMERIS_TYPE":0,"CLASSIFICATION_TYPE":"U","NORAD_CAT_ID":81392,"ELEMENT_SET_NO":999,"REV_AT_EPOCH":61740,"BSTAR":0.0030058,"MEAN_MOTION_DOT":3.225e-5,"MEAN_MOTION_DDOT":0},{"OBJECT_NAME":"UNKNOWN","OBJECT_ID":"","EPOCH":"2026-03-14T21:31:57.222912","MEAN_MOTION":13.89179281,"ECCENTRICITY":0.015752,"INCLINATION":99.459,"RA_OF_ASC_NODE":128.526,"ARG_OF_PERICENTER":337.4444,"MEAN_ANOMALY":21.9841,"EPHEMERIS_TYPE":0,"CLASSIFICATION_TYPE":"U","NORAD_CAT_ID":81405,"ELEMENT_SET_NO":999,"REV_AT_EPOCH":57459,"BSTAR":0.0011126,"MEAN_MOTION_DOT":1.447e-5,"MEAN_MOTION_DDOT":0},{"OBJECT_NAME":"UNKNOWN","OBJECT_ID":"","EPOCH":"2026-04-04T04:17:25.157760","MEAN_MOTION":13.1262024,"ECCENTRICITY":0.086741,"INCLINATION":65.8129,"RA_OF_ASC_NODE":261.6092,"ARG_OF_PERICENTER":270.2043,"MEAN_ANOMALY":79.9741,"EPHEMERIS_TYPE":0,"CLASSIFICATION_TYPE":"U","NORAD_CAT_ID":81406,"ELEMENT_SET_NO":999,"REV_AT_EPOCH":54843,"BSTAR":0.0005775,"MEAN_MOTION_DOT":1.417e-5,"MEAN_MOTION_DDOT":0},{"OBJECT_NAME":"UNKNOWN","OBJECT_ID":"","EPOCH":"2026-04-04T03:23:33.720864","MEAN_MOTION":14.07137128,"ECCENTRICITY":0.0085366,"INCLINATION":98.7385,"RA_OF_ASC_NODE":337.6244,"ARG_OF_PERICENTER":81.3739,"MEAN_ANOMALY":279.709,"EPHEMERIS_TYPE":0,"CLASSIFICATION_TYPE":"U","NORAD_CAT_ID":81427,"ELEMENT_SET_NO":999,"REV_AT_EPOCH":56757,"BSTAR":0.00048692,"MEAN_MOTION_DOT":8.01e-6,"MEAN_MOTION_DDOT":0},{"OBJECT_NAME":"UNKNOWN","OBJECT_ID":"","EPOCH":"2026-04-04T15:27:45.225216","MEAN_MOTION":13.55352604,"ECCENTRICITY":0.0045114,"INCLINATION":100.3287,"RA_OF_ASC_NODE":336.3345,"ARG_OF_PERICENTER":155.3087,"MEAN_ANOMALY":205.022,"EPHEMERIS_TYPE":0,"CLASSIFICATION_TYPE":"U","NORAD_CAT_ID":81438,"ELEMENT_SET_NO":999,"REV_AT_EPOCH":60723,"BSTAR":0.0050851,"MEAN_MOTION_DOT":3.497e-5,"MEAN_MOTION_DDOT":0},{"OBJECT_NAME":"UNKNOWN","OBJECT_ID":"","EPOCH":"2026-04-02T22:31:40.292256","MEAN_MOTION":12.62684224,"ECCENTRICITY":0.0596393,"INCLINATION":67.159,"RA_OF_ASC_NODE":286.7865,"ARG_OF_PERICENTER":134.4971,"MEAN_ANOMALY":230.6421,"EPHEMERIS_TYPE":0,"CLASSIFICATION_TYPE":"U","NORAD_CAT_ID":81439,"ELEMENT_SET_NO":999,"REV_AT_EPOCH":27593,"BSTAR":0.0012101,"MEAN_MOTION_DOT":3.82e-6,"MEAN_MOTION_DDOT":0},{"OBJECT_NAME":"UNKNOWN","OBJECT_ID":"","EPOCH":"2026-04-03T04:30:26.561952","MEAN_MOTION":15.27760381,"ECCENTRICITY":0.0012331,"INCLINATION":66.7903,"RA_OF_ASC_NODE":21.4435,"ARG_OF_PERICENTER":359.0773,"MEAN_ANOMALY":1.0351,"EPHEMERIS_TYPE":0,"CLASSIFICATION_TYPE":"U","NORAD_CAT_ID":81449,"ELEMENT_SET_NO":999,"REV_AT_EPOCH":65039,"BSTAR":0.013089,"MEAN_MOTION_DOT":0.00375366,"MEAN_MOTION_DDOT":0},{"OBJECT_NAME":"UNKNOWN","OBJECT_ID":"","EPOCH":"2026-04-03T17:38:33.533376","MEAN_MOTION":14.2928306,"ECCENTRICITY":0.0146085,"INCLINATION":98.9507,"RA_OF_ASC_NODE":13.5908,"ARG_OF_PERICENTER":33.482,"MEAN_ANOMALY":30.1628,"EPHEMERIS_TYPE":0,"CLASSIFICATION_TYPE":"U","NORAD_CAT_ID":81478,"ELEMENT_SET_NO":999,"REV_AT_EPOCH":63893,"BSTAR":0.002867,"MEAN_MOTION_DOT":8.144e-5,"MEAN_MOTION_DDOT":0},{"OBJECT_NAME":"UNKNOWN","OBJECT_ID":"","EPOCH":"2026-04-03T15:07:27.590016","MEAN_MOTION":13.56569756,"ECCENTRICITY":0.0045225,"INCLINATION":99.9886,"RA_OF_ASC_NODE":332.9015,"ARG_OF_PERICENTER":82.0319,"MEAN_ANOMALY":306.4772,"EPHEMERIS_TYPE":0,"CLASSIFICATION_TYPE":"U","NORAD_CAT_ID":81488,"ELEMENT_SET_NO":999,"REV_AT_EPOCH":61180,"BSTAR":0.00061695,"MEAN_MOTION_DOT":3.92e-6,"MEAN_MOTION_DDOT":0},{"OBJECT_NAME":"UNKNOWN","OBJECT_ID":"","EPOCH":"2026-04-04T12:33:53.684064","MEAN_MOTION":13.85074317,"ECCENTRICITY":0.002913,"INCLINATION":100.2997,"RA_OF_ASC_NODE":5.0138,"ARG_OF_PERICENTER":82.9384,"MEAN_ANOMALY":96.9612,"EPHEMERIS_TYPE":0,"CLASSIFICATION_TYPE":"U","NORAD_CAT_ID":81497,"ELEMENT_SET_NO":999,"REV_AT_EPOCH":23190,"BSTAR":0.004365,"MEAN_MOTION_DOT":4.91e-5,"MEAN_MOTION_DDOT":0},{"OBJECT_NAME":"UNKNOWN","OBJECT_ID":"","EPOCH":"2026-04-01T12:37:27.693408","MEAN_MOTION":14.47834467,"ECCENTRICITY":0.0001649,"INCLINATION":74.0502,"RA_OF_ASC_NODE":15.9008,"ARG_OF_PERICENTER":170.0115,"MEAN_ANOMALY":190.1077,"EPHEMERIS_TYPE":0,"CLASSIFICATION_TYPE":"U","NORAD_CAT_ID":81499,"ELEMENT_SET_NO":999,"REV_AT_EPOCH":49830,"BSTAR":0.00063081,"MEAN_MOTION_DOT":2.308e-5,"MEAN_MOTION_DDOT":0},{"OBJECT_NAME":"UNKNOWN","OBJECT_ID":"","EPOCH":"2026-04-02T11:51:05.448384","MEAN_MOTION":14.13713517,"ECCENTRICITY":0.023489,"INCLINATION":98.1871,"RA_OF_ASC_NODE":170.6098,"ARG_OF_PERICENTER":187.7371,"MEAN_ANOMALY":172.0155,"EPHEMERIS_TYPE":0,"CLASSIFICATION_TYPE":"U","NORAD_CAT_ID":81535,"ELEMENT_SET_NO":999,"REV_AT_EPOCH":40304,"BSTAR":0.00081001,"MEAN_MOTION_DOT":1.953e-5,"MEAN_MOTION_DDOT":0}]
