UNKNOWN                 
1 81359U          26094.10084691  .00000790  00000+0  80073-3 0  9992
2 81359  66.7972 143.0156 0121003 251.1104 107.6818 13.79025033620974
UNKNOWN                 
1 81366U          26093.59589659  .00001252  00000+0  46117-3 0  9991
2 81366  65.8818 167.2514 0714339  27.1324 336.5236 13.45429449 81006
UNKNOWN                 
1 81371U          26093.27416664  .00005496  00000+0  86549-3 0  9994
2 81371  98.8119 203.7252 0068712  17.8223 342.5368 14.71361206658232
UNKNOWN                 
1 81386U          26092.31792671  .00006519  00000+0  20792-2 0  9993
2 81386  71.0487 116.3732 0093765 269.9224  89.1166 14.37579494640129
UNKNOWN                 
1 81390U          26091.44098504 -.00000395  00000+0 -25854-2 0  9997
2 81390 103.1051 352.4570 0175687 314.0589  44.6114 12.35608531513647
UNKNOWN                 
1 81392U          26091.94356590  .00003225  00000+0  30058-2 0  9991
2 81392 100.4054  96.4099 0042343 111.3174 280.4946 13.82448122617406
UNKNOWN                 
1 81405U          26073.89719008  .00001447  00000+0  11126-2 0  9996
2 81405  99.4590 128.5260 0157520 337.4444  21.9841 13.89179281574593
UNKNOWN                 
1 81406U          26094.17876340  .00001417  00000+0  57750-3 0  9995
2 81406  65.8129 261.6092 0867410 270.2043  79.9741 13.12620240548434
UNKNOWN                 
1 81427U          26094.14136251  .00000801  00000+0  48692-3 0  9996
2 81427  98.7385 337.6244 0085366  81.3739 279.7090 14.07137128567570
UNKNOWN                 
1 81438U          26094.64427344  .00003497  00000+0  50851-2 0  9992
2 81438 100.3287 336.3345 0045114 155.3087 205.0220 13.55352604607231
UNKNOWN                 
1 81439U          26092.93866079  .00000382  00000+0  12101-2 0  9991
2 81439  67.1590 286.7865 0596393 134.4971 230.6421 12.62684224275932
UNKNOWN                 
1 81449U          26093.18780743  .00375366  00000+0  13089-1 0  9995
2 81449  66.7903  21.4435 0012331 359.0773   1.0351 15.27760381650395
UNKNOWN                 
1 81478U          26093.73511034  .00008144  00000+0  28670-2 0  9993
2 81478  98.9507  13.5908 0146085  33.4820  30.1628 14.29283060638932
UNKNOWN                 
1 81488U          26093.63018044  .00000392  00000+0  61695-3 0  9998
2 81488  99.9886 332.9015 0045225  82.0319 306.4772 13.56569756611802
UNKNOWN                 
1 81497U          26094.52353801  .00004910  00000+0  43650-2 0  9990
2 81497 100.2997   5.0138 0029130  82.9384  96.9612 13.85074317231902
UNKNOWN                 
1 81499U          26091.52601497  .00002308  00000+0  63081-3 0  9996
2 81499  74.0502  15.9008 0001649 170.0115 190.1077 14.47834467498306
UNKNOWN                 
1 81535U          26092.49381306  .00001953  00000+0  81001-3 0  9995
2 81535  98.1871 170.6098 0234890 187.7371 172.0155 14.13713517403044
